IRIDIUM 155             
1 43573U 18061E   24023.16734281  .00000407  00000+0  13827-3 0  9995
2 43573  86.3932  62.7944 0002189  86.7127 273.4319 14.34218617287797
IRIDIUM 154             
1 43574U 18061F   24023.49715856  .00000472  00000+0  16145-3 0  9997
2 43574  86.3934  62.7469 0002386  94.7173 265.4295 14.34217440287899
IRIDIUM 163             
1 43575U 18061G   24023.19905376  .00000472  00000+0  16129-3 0  9995
2 43575  86.3933  62.8143 0002291  93.4473 266.6985 14.34218907287824
IRIDIUM 156             
1 43576U 18061H   24023.17368125  .00000346  00000+0  11661-3 0  9995
2 43576  86.3933  62.8314 0001928  91.2519 268.8898 14.34217496287816
IRIDIUM 164             
1 43577U 18061J   24023.15465371  .00000027  00000+0  26269-5 0  9993
2 43577  86.3935  62.8657 0002106  99.8606 260.2828 14.34216015287858
IRIDIUM 159             
1 43578U 18061K   24023.19271287  .00000068  00000+0  17049-4 0  9999
2 43578  86.3933  62.8054 0002340  95.8272 264.3191 14.34215956287821
IRIDIUM 180             
1 43922U 19002A   24022.98288566  .00000668  00000+0  23134-3 0  9999
2 43922  86.3984 359.7724 0002222  88.7794 271.3657 14.34214919263402
IRIDIUM 176             
1 43923U 19002B   24022.98728014  .00001410  00000+0  21984-3 0  9994
2 43923  86.6115 359.7999 0002213  89.9019 270.2451 14.72226872270332
IRIDIUM 168             
1 43924U 19002C   24023.39516807  .00000333  00000+0  11179-3 0  9994
2 43924  86.3988 359.6522 0002175  88.3148 271.8297 14.34216199263440
IRIDIUM 173             
1 43925U 19002D   24023.03364436  .00000154  00000+0  47816-4 0  9994
2 43925  86.3984 359.7286 0002273  85.4008 274.7448 14.34217304263378
IRIDIUM 169             
1 43926U 19002E   24023.40593263  .00000326  00000+0  10003-3 0  9996
2 43926  86.4211  31.1750 0003186  33.8706 326.2695 14.38613984264316
IRIDIUM 172             
1 43927U 19002F   24022.95753197  .00000212  00000+0  68689-4 0  9998
2 43927  86.3983 359.7661 0002191  91.0662 269.0785 14.34217327263370
IRIDIUM 175             
1 43928U 19002G   24023.38917281  .00002125  00000+0  33322-3 0  9993
2 43928  86.1535 341.0260 0002435  87.2151 272.9344 14.72224734270387
IRIDIUM 171             
1 43929U 19002H   24023.28734719  .00000378  00000+0  12808-3 0  9990
2 43929  86.3995 359.8365 0002125  91.7887 268.3553 14.34219071263418
IRIDIUM 170             
1 43930U 19002J   24022.99352095  .00001841  00000+0  28818-3 0  9996
2 43930  86.6114 359.8020 0002400  89.1544 270.9948 14.72230470270346
IRIDIUM 167             
1 43931U 19002K   24023.42054240  .00000031  00000+0  38486-5 0  9991
2 43931  86.3986 359.5868 0002098  90.2432 269.9004 14.34217179263432
IRIDIUM 181             
1 56726U 23068S   24023.12639394  .00000583  00000+0  16624-3 0  9990
2 56726  86.8602  46.3410 0001652 104.2281 255.9104 14.43592965 36067
IRIDIUM 177             
1 56727U 23068T   24023.20574702  .00001117  00000+0  14357-3 0  9996
2 56727  86.1965  24.6509 0002468  93.7865 266.3638 14.80216475 36784
IRIDIUM 174             
1 56728U 23068U   24023.06514641  .00001025  00000+0  13142-3 0  9996
2 56728  86.1973  24.8098 0002430  92.7266 267.4233 14.80209091 36769
IRIDIUM 178             
1 56729U 23068V   24023.05970211  .00000926  00000+0  11848-3 0  9995
2 56729  86.5762  35.3469 0002464  95.6146 264.5357 14.80198335 36768
IRIDIUM 179             
1 56730U 23068W   24023.05425093  .00000929  00000+0  11897-3 0  9997
2 56730  86.6769  37.6420 0002185  92.7451 267.4021 14.80191553 36762
